{"aeqd_center":{"lat":-77.84197568230972,"lon":166.68954909266117},"features":[{"geometry":{"coordinates":[166.668,-77.846],"type":"Point"},"properties":{"name":"launch_point","role":"input"},"type":"Feature"},{"geometry":{"coordinates":[[166.668,-77.846],[166.6808,-77.843754],[166.691467,-77.841958]],"type":"LineString"},"properties":{"name":"ingress_route","role":"input"},"type":"Feature"},{"geometry":{"coordinates":[[[166.697867,-77.838993],[166.690563,-77.84011],[166.693353,-77.841918],[166.702381,-77.841918],[166.705171,-77.84011],[166.697867,-77.838993]]],"type":"Polygon"},"properties":{"name":"region_of_interest","role":"input"},"type":"Feature"},{"geometry":{"coordinates":[[[166.6765060992589,-77.84600052865116],[166.6764798440292,-77.8460705869583],[166.67645358850146,-77.84614064526261],[166.6764273326757,-77.84621070356408],[166.67640107655183,-77.84628076186273],[166.67632310307454,-77.84634909260724],[166.67624512873394,-77.84641742332957],[166.67616715352995,-77.84648575402971],[166.67608917746261,-77.84655408470768],[166.6759614024574,-77.84661900521772],[166.67583362610802,-77.84668392566878],[166.67570584841445,-77.84674884606089],[166.6755780693767,-77.846813766394],[166.67540363644002,-77.8468736778708],[166.6752292018099,-77.846933589238],[166.67505476548632,-77.84699350049561],[166.67488032746928,-77.84705341164364],[166.67466352992798,-77.84710683855344],[166.67444673050974,-77.84716026529416],[166.67422992921456,-77.84721369186579],[166.67401312604235,-77.84726711826835],[166.67375930141324,-77.8473127447065],[166.67350547490742,-77.84735837091304],[166.67325164652488,-77.84740399688793],[166.6729978162656,-77.84744962263117],[166.67271321490227,-77.84748632475973],[166.67242861184624,-77.84752302659716],[166.67214400709753,-77.84755972814347],[166.67185940065607,-77.84759642939866],[166.67155103181062,-77.84762330315523],[166.67124266162222,-77.8476501765701],[166.67093429009086,-77.84767704964327],[166.6706259172166,-77.84770392237473],[166.67030137630917,-77.84772030576706],[166.66997683454008,-77.84773668878096],[166.6696522919094,-77.8477530714164],[166.6693277484171,-77.84776945367341],[166.66899502978103,-77.84777494310705],[166.66866231084902,-77.84778043214297],[166.66832959162105,-77.84778592078115],[166.66799687209715,-77.8477914090216],[166.6676641718323,-77.84778586925619],[166.66733147186613,-77.8477803290931],[166.6669987721987,-77.84777478853232],[166.66666607283,-77.84776924757388],[166.6663415866484,-77.84775281506104],[166.6660171013309,-77.8477363821699],[166.66569261687755,-77.84771994890045],[166.6653681332883,-77.8477035152527],[166.6650598543631,-77.84767659477252],[166.66475157678283,-77.84764967395084],[166.66444330054742,-77.84762275278767],[166.66413502565692,-77.84759583128302],[166.66385054748613,-77.84755908596236],[166.6635660710093,-77.84752234035085],[166.6632815962264,-77.84748559444849],[166.6629971231375,-77.84744884825527],[166.6627434523074,-77.84740318321512],[166.66248978335446,-77.84735751794364],[166.66223611627868,-77.8473118524408],[166.66198245107998,-77.84726618670662],[166.66176583456473,-77.84721272674349],[166.66154921992606,-77.84715926661157],[166.66133260716384,-77.84710580631086],[166.6611159962781,-77.84705234584136],[166.66094176754441,-77.84699240769538],[166.66076754050292,-77.84693246944009],[166.66059331515356,-77.84687253107546],[166.66041909149635,-77.84681259260152],[166.6602915392103,-77.84674765249763],[166.66016398826642,-77.84668271233497],[166.66003643866475,-77.84661777211356],[166.6599088904052,-77.84655283183338],[166.65983115297064,-77.8464844890983],[166.6597534163969,-77.84641614634117],[166.65967568068396,-77.84634780356198],[166.65959794583185,-77.84627946076074],[166.65957193434326,-77.84620939841501],[166.6595459231499,-77.8461393360665],[166.65951991225177,-77.84606927371522],[166.65949390164891,-77.84599921136112],[166.65952025313348,-77.84592915465916],[166.65954660431888,-77.84585909795436],[166.65957295520514,-77.84578904124669],[166.65959930579226,-77.84571898453618],[166.6596773678631,-77.84565065847698],[166.65975542906978,-77.84558233239555],[166.65983348941228,-77.84551400629188],[166.65991154889056,-77.84544568016598],[166.66003939615592,-77.84538076702157],[166.66016724207668,-77.84531585381812],[166.6602950866528,-77.84525094055562],[166.66042292988436,-77.84518602723409],[166.66059741167444,-77.84512612514104],[166.66077189177113,-77.84506622293833],[166.66094637017443,-77.84500632062596],[166.6611208468844,-77.84494641820392],[166.6613376650902,-77.84489300183621],[166.66155448141959,-77.84483958529938],[166.66177129587263,-77.84478616859339],[166.66198810844926,-77.84473275171825],[166.66224192353127,-77.84468713600744],[166.6624957367375,-77.84464152006495],[166.66274954806798,-77.84459590389079],[166.66300335752268,-77.84455028748498],[166.66328792006178,-77.84451359527773],[166.6635724809093,-77.84447690277939],[166.66385704006524,-77.84444020998995],[166.66414159752958,-77.84440351690941],[166.66444990207413,-77.84437665135574],[166.6647582052768,-77.84434978546042],[166.66506650713757,-77.84432291922347],[166.6653748076564,-77.84429605264486],[166.6656992650804,-77.84427967499289],[166.66602372164348,-77.84426329696257],[166.6663481773457,-77.84424691855389],[166.66667263218696,-77.84423053976687],[166.66700525632902,-77.84422505310792],[166.66733788017538,-77.84421956605135],[166.6676705037261,-77.84421407859716],[166.6680031269811,-77.84420859074537],[166.6683357309911,-77.84421413010699],[166.6686683352996,-77.84421966907105],[166.66900093990657,-77.84422520763755],[166.66933354481193,-77.84423074580647],[166.6696579424,-77.84424717483539],[166.66998234085145,-77.8442636034861],[166.67030674016632,-77.8442800317586],[166.67063114034457,-77.8442964596529],[166.6709393470096,-77.84432337396885],[166.67124755501854,-77.84435028794337],[166.67155576437136,-77.84437720157646],[166.67186397506802,-77.84440411486813],[166.67214840438547,-77.84444085200646],[166.67243283539574,-77.84447758885395],[166.6727172680989,-77.8445143254106],[166.67300170249487,-77.84455106167643],[166.6732553526605,-77.84459671737586],[166.67350900470228,-77.84464237284395],[166.67376265862023,-77.84468802808067],[166.67401631441442,-77.84473368308602],[166.67423294047683,-77.84478713352321],[166.67444956841516,-77.84484058379157],[166.67466619822943,-77.84489403389107],[166.67488282991965,-77.84494748382173],[166.67505709747763,-77.8450074132478],[166.67523136672767,-77.84506734256448],[166.6754056376698,-77.84512727177176],[166.675579910304,-77.84518720086966],[166.67570752689107,-77.84525213397205],[166.67583514482072,-77.84531706701561],[166.67596276409296,-77.84538200000036],[166.67609038470783,-77.84544693292627],[166.6761682056259,-77.8455152711224],[166.67624602740565,-77.84558360929644],[166.67632385004705,-77.84565194744839],[166.67640167355015,-77.84572028557822],[166.67642777953282,-77.84579034635067],[166.67645388581184,-77.8458604071203],[166.6764799923872,-77.84593046788714],[166.6765060992589,-77.84600052865116]]],"type":"Polygon"},"properties":{"name":"fence_launch_point","role":"fence"},"type":"Feature"},{"geometry":{"coordinates":[[[166.67807800881076,-77.8430658700253],[166.67814557272487,-77.84305425657615],[166.67846885412294,-77.84299984142767],[166.67879213267136,-77.84294542590334],[166.6791154083702,-77.84289101000317],[166.6794386812194,-77.84283659372718],[166.6797619512191,-77.84278217707536],[166.68008521836921,-77.84272776004771],[166.6804084826698,-77.84267334264426],[166.6807317441209,-77.842618924865],[166.68105500272247,-77.84256450670992],[166.68137825847455,-77.84251008817904],[166.6817015113772,-77.84245566927237],[166.68202476143043,-77.8424012499899],[166.6823480086342,-77.84234683033166],[166.68267125298857,-77.84229241029763],[166.6829944944936,-77.84223798988782],[166.68331773314924,-77.84218356910225],[166.68364096895553,-77.84212914794091],[166.6839642019125,-77.84207472640381],[166.6842874320201,-77.84202030449096],[166.6846106592785,-77.84196588220235],[166.6849338836876,-77.841911459538],[166.68525710524744,-77.84185703649791],[166.68558032395802,-77.84180261308208],[166.68590353981944,-77.84174818929053],[166.68622675283163,-77.84169376512324],[166.68654996299463,-77.84163934058024],[166.68687317030847,-77.84158491566153],[166.6871963747732,-77.8415304903671],[166.6875195763888,-77.84147606469696],[166.6878427751553,-77.84142163865114],[166.6881659710727,-77.84136721222961],[166.68848916414103,-77.8413127854324],[166.68881235436032,-77.8412583582595],[166.68908844360035,-77.84121892135697],[166.68936453107688,-77.84117948418033],[166.68966650019098,-77.8411496316224],[166.68996846784506,-77.84111977873664],[166.6902888824274,-77.84110024544711],[166.69060929599607,-77.8410807117885],[166.69094026783313,-77.84107197863875],[166.69127123920205,-77.84106324509523],[166.69160462036413,-77.8410655270739],[166.69193800164942,-77.84106780865304],[166.6922655849537,-77.84108104957745],[166.69259316896049,-77.84109429011612],[166.69290688988616,-77.84111816401528],[166.69322061202493,-77.84114203756063],[166.6935127471253,-77.8411759566956],[166.69380488383055,-77.8412098755237],[166.6940682407725,-77.84125300484858],[166.69433159955415,-77.841296133924],[166.6945596941191,-77.84134741163257],[166.6947877905785,-77.84139868915392],[166.69497500627628,-77.84145685280734],[166.69516222373775,-77.84151501633451],[166.69530395010733,-77.84157863392855],[166.6954456779373,-77.84164225145011],[166.69553842412947,-77.84170975665869],[166.69563117133572,-77.84177726183601],[166.69567265217455,-77.84184699256487],[166.69571413348194,-77.84191672328718],[166.69570332587602,-77.8419869625898],[166.69569251814718,-77.84205720189163],[166.69562968644752,-77.842126220241],[166.6955668540454,-77.84219523857581],[166.6954535437091,-77.84226133645154],[166.69534023215965,-77.8423274342808],[166.69517923185913,-77.84238898402307],[166.69501822995346,-77.84245053367191],[166.69481350304747,-77.84250601957092],[166.69460877430146,-77.84256150531905],[166.69436536134225,-77.84260956095184],[166.69412194648825,-77.84265761637148],[166.69379977506068,-77.84271187589889],[166.69347760080143,-77.84276613505301],[166.69315542371052,-77.84282039383386],[166.69283324378793,-77.84287465224142],[166.69251106103363,-77.84292891027569],[166.69218887544764,-77.84298316793667],[166.69186668702986,-77.84303742522432],[166.69154449578036,-77.84309168213869],[166.69122230169907,-77.84314593867973],[166.690900104786,-77.84320019484746],[166.69057790504112,-77.84325445064187],[166.69025570246438,-77.84330870606296],[166.6899334970558,-77.8433629611107],[166.68961128881534,-77.84341721578511],[166.689289077743,-77.84347147008617],[166.68896686383877,-77.84352572401389],[166.68864464710262,-77.84357997756825],[166.68832242753453,-77.84363423074927],[166.68800020513444,-77.84368848355692],[166.6876779799024,-77.8437427359912],[166.68735575183837,-77.8437969880521],[166.68703352094232,-77.84385123973964],[166.68671128721422,-77.84390549105377],[166.68638905065407,-77.84395974199454],[166.68606681126187,-77.84401399256191],[166.68574456903758,-77.84406824275588],[166.68542232398116,-77.84412249257645],[166.6851000760926,-77.8441767420236],[166.68477782537192,-77.84423099109736],[166.68445557181906,-77.84428523979768],[166.68413331543405,-77.8443394881246],[166.6838110562168,-77.84439373607808],[166.68348879416737,-77.84444798365813],[166.68316968269644,-77.84450399691885],[166.68285056832966,-77.84456000981336],[166.68253145106704,-77.8446160223417],[166.68221233090847,-77.84467203450383],[166.68189320785405,-77.84472804629976],[166.68157408190368,-77.84478405772948],[166.68125495305736,-77.844840068793],[166.68093582131507,-77.8448960794903],[166.68061668667679,-77.84495208982136],[166.68029754914247,-77.8450080997862],[166.67997840871212,-77.84506410938481],[166.6796592653857,-77.84512011861717],[166.67934011916324,-77.8451761274833],[166.67902097004466,-77.84523213598317],[166.67870181802996,-77.8452881441168],[166.67838266311912,-77.84534415188415],[166.6780635053121,-77.84540015928525],[166.67774434460893,-77.84545616632008],[166.6774251810095,-77.84551217298863],[166.6771060145139,-77.84556817929092],[166.67678684512202,-77.84562418522691],[166.6764676728339,-77.84568019079661],[166.67614849764945,-77.84573619600002],[166.67582931956872,-77.84579220083714],[166.67551013859165,-77.84584820530795],[166.6751909547182,-77.84590420941244],[166.67487176794842,-77.84596021315062],[166.67455257828223,-77.84601621652249],[166.67423338571962,-77.84607221952803],[166.67391419026058,-77.84612822216722],[166.67359499190505,-77.84618422444011],[166.67327579065307,-77.84624022634664],[166.6729565865046,-77.84629622788682],[166.67263737945956,-77.84635222906067],[166.672318169518,-77.84640822986816],[166.67199895667991,-77.8464642303093],[166.6716797409452,-77.84652023038404],[166.6713605223139,-77.84657623009244],[166.67104130078596,-77.84663222943445],[166.67072207636133,-77.84668822841009],[166.6704497027902,-77.84672883189515],[166.670177327427,-77.84676943511352],[166.66987814222836,-77.84680056511978],[166.6695789555206,-77.84683169480434],[166.66926032664642,-77.84685258465794],[166.66894169669368,-77.84687347414673],[166.66861147126104,-77.84688360936096],[166.66828124528612,-77.84689374418336],[166.66794755621663,-77.84689287513794],[166.66761386719415,-77.84689200569244],[166.6672849327902,-77.84688015378589],[166.666955999018,-77.84686830149059],[166.66663992042774,-77.84684575861363],[166.6663238429921,-77.84682321537767],[166.66602840456656,-77.84679053672048],[166.66573296770542,-77.84675785774958],[166.66546544518033,-77.84671584812065],[166.66519792447625,-77.84667383823447],[166.66496490571535,-77.84662353222903],[166.6647318888539,-77.84657322602833],[166.66453911157802,-77.84651586253588],[166.66434633609398,-77.84645849890967],[166.66419854659685,-77.84639549059014],[166.6640507586085,-77.84633248219185],[166.66395159493828,-77.8462653806739],[166.66385243234623,-77.84619827912027],[166.66380433482473,-77.84612873678003],[166.66375623784518,-77.8460591944311],[166.6637603891177,-77.84598892369435],[166.66376454034295,-77.84591865295717],[166.66382083642165,-77.8458493841278],[166.66387713186845,-77.8457801152867],[166.66398418486602,-77.84571355394068],[166.66409123670906,-77.84564699255317],[166.66424640917876,-77.84558477754695],[166.66440158008425,-77.84552256245394],[166.66460105010412,-77.84546622558088],[166.66480051830325,-77.84540988856462],[166.6650393736883,-77.84536081685174],[166.66527822717424,-77.84531174493368],[166.6655982784767,-77.84525560524199],[166.66591832686805,-77.84519946518196],[166.6662383723483,-77.84514332475365],[166.66655841491746,-77.845087183957],[166.6668784545756,-77.84503104279206],[166.66719849132267,-77.84497490125881],[166.66751852515875,-77.84491875935726],[166.66783855608384,-77.84486261708741],[166.66815858409797,-77.8448064744493],[166.66847860920112,-77.8447503314429],[166.66879863139334,-77.84469418806822],[166.66911865067468,-77.84463804432527],[166.66943866704514,-77.84458190021405],[166.66975868050474,-77.84452575573457],[166.67007869105348,-77.84446961088683],[166.6703986986914,-77.84441346567085],[166.67071870341854,-77.84435732008663],[166.67103870523488,-77.84430117413416],[166.67135870414046,-77.84424502781344],[166.67167870013532,-77.84418888112451],[166.67199869321948,-77.84413273406736],[166.67231868339292,-77.84407658664198],[166.6726386706557,-77.84402043884837],[166.67295865500785,-77.84396429068657],[166.6732786364493,-77.84390814215655],[166.67359861498022,-77.84385199325835],[166.67391859060052,-77.84379584399194],[166.67423856331024,-77.84373969435735],[166.67455853310946,-77.84368354435458],[166.67487849999813,-77.84362739398361],[166.6751984639763,-77.84357124324448],[166.67551842504398,-77.84351509213718],[166.6758383832012,-77.84345894066172],[166.676158338448,-77.8434027888181],[166.6764782907844,-77.84334663660631],[166.67679824021036,-77.8432904840264],[166.67711818672598,-77.84323433107832],[166.6774381303312,-77.84317817776211],[166.67775807102618,-77.84312202407777],[166.67807800881076,-77.8430658700253]]],"type":"Polygon"},"properties":{"name":"fence_ingress_route","role":"fence"},"type":"Feature"},{"geometry":{"coordinates":[[[166.7041084436627,-77.83718074757888],[166.70444039195036,-77.83723151702588],[166.70477234296666,-77.83728228607644],[166.70510429671168,-77.8373330547306],[166.70543625318535,-77.83738382298833],[166.70576821238777,-77.83743459084964],[166.7061001743189,-77.83748535831451],[166.70643213897876,-77.83753612538294],[166.7067641063674,-77.83758689205493],[166.70709607648476,-77.83763765833048],[166.7074280493309,-77.83768842420957],[166.70776002490587,-77.8377391896922],[166.7080920032096,-77.83778995477837],[166.70842398424213,-77.83784071946808],[166.70875596800354,-77.8378914837613],[166.70908795449375,-77.83794224765805],[166.70941994371285,-77.83799301115832],[166.7097519356608,-77.8380437742621],[166.71008393033762,-77.8380945369694],[166.71041592774333,-77.83814529928019],[166.71074792787795,-77.83819606119448],[166.71107993074148,-77.83824682271226],[166.71141193633395,-77.83829758383352],[166.71172926747062,-77.83835462549585],[166.7120466015384,-77.83841166679586],[166.71236393853724,-77.83846870773357],[166.71268127846722,-77.83852574830897],[166.71295234204544,-77.83859255280751],[166.71322340855596,-77.83865935704154],[166.71349447799886,-77.83872616101107],[166.71376555037412,-77.83879296471608],[166.71398366368916,-77.83886788580048],[166.71420177965052,-77.83894280671342],[166.71441989825811,-77.8390177274549],[166.71463801951205,-77.83909264802493],[166.71479780349338,-77.8391738393116],[166.71495758957562,-77.83925503050601],[166.71511737775873,-77.83933622160814],[166.71527716804283,-77.83941741261799],[166.71537468007372,-77.83950287305419],[166.71547219345416,-77.83958833345568],[166.7155697081842,-77.83967379382244],[166.7156672242639,-77.8397592541545],[166.71570005573332,-77.83984687730488],[166.71573288766868,-77.83993450045081],[166.71576572006995,-77.8400221235923],[166.71579855293717,-77.84010974672938],[166.7157658890841,-77.84019737267408],[166.71573322476752,-77.84028499861442],[166.71570055998745,-77.84037262455035],[166.71566789474383,-77.84046025048188],[166.7155705352725,-77.84054571905003],[166.7154731744535,-77.84063118758355],[166.71537581228685,-77.84071665608248],[166.71527844877252,-77.8408021245468],[166.7151517084751,-77.84088431157913],[166.71502496649066,-77.84096649855321],[166.71489822281916,-77.84104868546908],[166.71477147746057,-77.8411308723267],[166.71464473041488,-77.84121305912609],[166.71451798168198,-77.84129524586724],[166.7143912312619,-77.84137743255016],[166.71426447915462,-77.84145961917483],[166.7141377253601,-77.84154180574126],[166.71401096987825,-77.84162399224947],[166.7138842127091,-77.84170617869941],[166.71375745385262,-77.84178836509112],[166.7136306933087,-77.84187055142459],[166.71350393107738,-77.8419527376998],[166.7133771671586,-77.84203492391677],[166.71325040155236,-77.84211711007549],[166.71312363425858,-77.84219929617596],[166.71299686527726,-77.84228148221818],[166.71287009460832,-77.84236366820215],[166.71274332225178,-77.84244585412787],[166.7126165482076,-77.84252803999534],[166.71248977247572,-77.84261022580455],[166.71233022269058,-77.84269136537468],[166.71217067080843,-77.84277250485285],[166.71201111682925,-77.84285364423903],[166.71185156075296,-77.84293478353324],[166.71163372458176,-77.84300966735822],[166.71141588576813,-77.84308455101223],[166.71119804431203,-77.84315943449529],[166.71098020021344,-77.84323431780737],[166.71070943629493,-77.84330110233806],[166.71043866944714,-77.84336788660492],[166.71016789967,-77.84343467060796],[166.70989712696354,-77.84350145434718],[166.7095800982177,-77.8435584953098],[166.7092630665424,-77.84361553591094],[166.70894603193761,-77.84367257615064],[166.7086289944033,-77.84372961602887],[166.70827350415843,-77.8437755089499],[166.7079180112706,-77.84382140141662],[166.70756251573988,-77.843867293429],[166.7072070175662,-77.84391318498703],[166.70682181744863,-77.8439467998172],[166.70643661523337,-77.84398041411403],[166.7060514109205,-77.8440140278775],[166.70566620450998,-77.84404764110764],[166.70526077883042,-77.84406815008705],[166.70485535180376,-77.84408865847571],[166.70444992343016,-77.84410916627363],[166.70404449370957,-77.84412967348078],[166.7036288256733,-77.84413657155464],[166.7032131571725,-77.84414346900756],[166.7027974882073,-77.84415036583954],[166.70238181877767,-77.84415726205057],[166.70197138070876,-77.84415726840743],[166.70156094263945,-77.84415727415889],[166.70115050456974,-77.84415727930492],[166.70074006649975,-77.84415728384555],[166.70032962842947,-77.84415728778076],[166.69991919035894,-77.84415729111056],[166.69950875228824,-77.84415729383495],[166.69909831421734,-77.84415729595393],[166.69868787614635,-77.84415729746749],[166.69827743807528,-77.84415729837565],[166.69786700000415,-77.84415729867838],[166.69745656193302,-77.84415729837572],[166.69704612386192,-77.84415729746763],[166.69663568579094,-77.84415729595413],[166.69622524772004,-77.84415729383522],[166.69581480964933,-77.8441572911109],[166.69540437157877,-77.84415728778117],[166.69499393350853,-77.84415728384603],[166.69458349543854,-77.84415727930548],[166.69417305736886,-77.8441572741595],[166.69376261929955,-77.84415726840813],[166.69335218123064,-77.84415726205133],[166.69293651180118,-77.84415036584038],[166.69252084283616,-77.84414346900847],[166.69210517433558,-77.84413657155562],[166.6916895062995,-77.84412967348183],[166.691284076579,-77.84410916627476],[166.69087864820546,-77.84408865847693],[166.69047322117893,-77.84406815008835],[166.69006779549943,-77.84404764110901],[166.68968258908885,-77.84401402787897],[166.68929738477595,-77.84398041411556],[166.6889121825607,-77.84394679981881],[166.68852698244308,-77.84391318498872],[166.68817148426925,-77.84386729343076],[166.68781598873835,-77.84382140141845],[166.6874604958504,-77.84377550895181],[166.68710500560536,-77.84372961603083],[166.6867879680708,-77.84367257615267],[166.68647093346576,-77.84361553591303],[166.68615390179022,-77.84355849531192],[166.68583687304417,-77.84350145434937],[166.68556610033733,-77.84343467061018],[166.68529533055988,-77.84336788660718],[166.68502456371178,-77.84330110234036],[166.68475379979296,-77.84323431780972],[166.68453595569397,-77.84315943449764],[166.68431811423747,-77.8430845510146],[166.68410027542348,-77.8430096673606],[166.68388243925196,-77.84293478353564],[166.68372288317522,-77.84285364424143],[166.6835633291956,-77.84277250485525],[166.68340377731306,-77.84269136537708],[166.68324422752755,-77.84261022580694],[166.68311745179525,-77.84252803999769],[166.68299067775064,-77.84244585413018],[166.68286390539373,-77.84236366820443],[166.68273713472442,-77.84228148222041],[166.68261036574273,-77.84219929617814],[166.68248359844867,-77.84211711007762],[166.6823568328421,-77.84203492391885],[166.68223006892305,-77.84195273770183],[166.68210330669152,-77.84187055142657],[166.68197654614738,-77.84178836509304],[166.68184978729064,-77.84170617870129],[166.68172303012133,-77.84162399225127],[166.68159627463933,-77.84154180574302],[166.68146952084464,-77.84145961917653],[166.68134276873727,-77.8413774325518],[166.68121601831712,-77.8412952458688],[166.68108926958416,-77.8412130591276],[166.68096252253838,-77.84113087232814],[166.6808357771798,-77.84104868547045],[166.68070903350826,-77.84096649855452],[166.68058229152388,-77.84088431158035],[166.6804555512265,-77.84080212454796],[166.6803581877122,-77.84071665608356],[166.68026082554564,-77.84063118758453],[166.68016346472677,-77.84054571905092],[166.68006610525555,-77.84046025048269],[166.68003344001204,-77.84037262455105],[166.6800007752321,-77.84028499861502],[166.6799681109157,-77.8401973726746],[166.6799354470628,-77.84010974672978],[166.67996827993025,-77.84002212359262],[166.68000111233175,-77.83993450045101],[166.68003394426736,-77.83984687730498],[166.68006677573706,-77.83975925415452],[166.68016429181702,-77.83967379382236],[166.68026180654735,-77.83958833345548],[166.68035931992813,-77.8395028730539],[166.68045683195936,-77.83941741261759],[166.68061662224375,-77.83933622160767],[166.68077641042723,-77.83925503050544],[166.68093619650983,-77.83917383931096],[166.68109598049156,-77.8390926480242],[166.68131410174587,-77.8390177274541],[166.68153222035386,-77.83894280671254],[166.6817503363156,-77.83886788579953],[166.68196844963106,-77.83879296471507],[166.68223952200665,-77.83872616101],[166.68251059144993,-77.83865935704041],[166.68278165796085,-77.83859255280633],[166.68305272153947,-77.83852574830775],[166.6833700614698,-77.8384687077323],[166.68368739846898,-77.83841166679457],[166.6840047325371,-77.83835462549452],[166.68432206367416,-77.83829758383217],[166.68465406926683,-77.8382468227109],[166.68498607213058,-77.83819606119312],[166.68531807226546,-77.83814529927882],[166.6856500696714,-77.83809453696803],[166.68598206434848,-77.83804377426075],[166.68631405629668,-77.83799301115697],[166.68664604551603,-77.83794224765671],[166.68697803200652,-77.83789148375998],[166.68731001576822,-77.83784071946675],[166.68764199680106,-77.83778995477707],[166.68797397510514,-77.83773918969092],[166.6883059506804,-77.83768842420832],[166.68863792352687,-77.83763765832926],[166.68896989364458,-77.83758689205374],[166.68930186103353,-77.83753612538177],[166.68963382569373,-77.83748535831337],[166.68996578762523,-77.83743459084855],[166.69029774682798,-77.83738382298728],[166.69062970330208,-77.83733305472958],[166.69096165704744,-77.83728228607546],[166.69129360806414,-77.83723151702495],[166.6916255563522,-77.837180747578],[166.69198080651466,-77.83713491737008],[166.69233605404102,-77.8370890867082],[166.6926912989313,-77.83704325559238],[166.69304654118548,-77.83699742402261],[166.693431408629,-77.83696385942841],[166.693816273981,-77.8369302943015],[166.6942011372415,-77.83689672864188],[166.69458599841042,-77.83686316244955],[166.6949910233685,-77.83684268836028],[166.69539604698397,-77.8368222136811],[166.6958010692568,-77.83680173841199],[166.69620609018688,-77.83678126255298],[166.69662131833658,-77.8367743821203],[166.69703654602367,-77.83676750106763],[166.6974517732482,-77.83676061939495],[166.69786700001004,-77.8367537371023],[166.69828222677177,-77.83676061939502],[166.69869745399617,-77.83676750106777],[166.6991126816832,-77.83677438212051],[166.6995279098328,-77.83678126255326],[166.69993293076266,-77.83680173841235],[166.70033795303522,-77.83682221368151],[166.70074297665042,-77.83684268836076],[166.70114800160826,-77.83686316245009],[166.70153286277676,-77.83689672864247],[166.70191772603684,-77.83693029430214],[166.70230259138845,-77.8369638594291],[166.70268745883158,-77.83699742402337],[166.70304270108522,-77.83704325559317],[166.70339794597496,-77.83708908670903],[166.7037531935008,-77.83713491737093],[166.7041084436627,-77.83718074757888]]],"type":"Polygon"},"properties":{"name":"fence_region_of_interest","role":"fence"},"type":"Feature"},{"geometry":{"coordinates":[[[166.67608917746261,-77.84655408470768],[166.6759614024574,-77.84661900521772],[166.67583362610802,-77.84668392566878],[166.67570584841445,-77.84674884606089],[166.6755780693767,-77.846813766394],[166.67540363644002,-77.8468736778708],[166.6752292018099,-77.846933589238],[166.67505476548632,-77.84699350049561],[166.67488032746928,-77.84705341164364],[166.67466352992798,-77.84710683855344],[166.67444673050974,-77.84716026529416],[166.67422992921456,-77.84721369186579],[166.67401312604235,-77.84726711826835],[166.67375930141324,-77.8473127447065],[166.67350547490742,-77.84735837091304],[166.67325164652488,-77.84740399688793],[166.6729978162656,-77.84744962263117],[166.67271321490227,-77.84748632475973],[166.67242861184624,-77.84752302659716],[166.67214400709753,-77.84755972814347],[166.67185940065607,-77.84759642939866],[166.67155103181062,-77.84762330315523],[166.67124266162222,-77.8476501765701],[166.67093429009086,-77.84767704964327],[166.6706259172166,-77.84770392237473],[166.67030137630917,-77.84772030576706],[166.66997683454008,-77.84773668878096],[166.6696522919094,-77.8477530714164],[166.6693277484171,-77.84776945367341],[166.66899502978103,-77.84777494310705],[166.66866231084902,-77.84778043214297],[166.66832959162105,-77.84778592078115],[166.66799687209715,-77.8477914090216],[166.6676641718323,-77.84778586925619],[166.66733147186613,-77.8477803290931],[166.6669987721987,-77.84777478853232],[166.66666607283,-77.84776924757388],[166.6663415866484,-77.84775281506104],[166.6660171013309,-77.8477363821699],[166.66569261687755,-77.84771994890045],[166.6653681332883,-77.8477035152527],[166.6650598543631,-77.84767659477252],[166.66475157678283,-77.84764967395084],[166.66444330054742,-77.84762275278767],[166.66413502565692,-77.84759583128302],[166.66385054748613,-77.84755908596236],[166.6635660710093,-77.84752234035085],[166.6632815962264,-77.84748559444849],[166.6629971231375,-77.84744884825527],[166.6627434523074,-77.84740318321512],[166.66248978335446,-77.84735751794364],[166.66223611627868,-77.8473118524408],[166.66198245107998,-77.84726618670662],[166.66176583456473,-77.84721272674349],[166.66154921992606,-77.84715926661157],[166.66133260716384,-77.84710580631086],[166.6611159962781,-77.84705234584136],[166.66094176754441,-77.84699240769538],[166.66076754050292,-77.84693246944009],[166.66059331515356,-77.84687253107546],[166.66041909149635,-77.84681259260152],[166.6602915392103,-77.84674765249763],[166.66016398826642,-77.84668271233497],[166.66003643866475,-77.84661777211356],[166.6599088904052,-77.84655283183338],[166.65983115297064,-77.8464844890983],[166.6597534163969,-77.84641614634117],[166.65967568068396,-77.84634780356198],[166.65959794583185,-77.84627946076074],[166.65957193434326,-77.84620939841501],[166.6595459231499,-77.8461393360665],[166.65951991225177,-77.84606927371522],[166.65949390164891,-77.84599921136112],[166.65952025313348,-77.84592915465916],[166.65954660431888,-77.84585909795436],[166.65957295520514,-77.84578904124669],[166.65959930579226,-77.84571898453618],[166.6596773678631,-77.84565065847698],[166.65975542906978,-77.84558233239555],[166.65983348941228,-77.84551400629188],[166.65991154889056,-77.84544568016598],[166.66003939615592,-77.84538076702157],[166.66016724207668,-77.84531585381812],[166.6602950866528,-77.84525094055562],[166.66042292988436,-77.84518602723409],[166.66059741167444,-77.84512612514104],[166.66077189177113,-77.84506622293833],[166.66094637017443,-77.84500632062596],[166.6611208468844,-77.84494641820392],[166.6613376650902,-77.84489300183621],[166.66155448141959,-77.84483958529938],[166.66177129587263,-77.84478616859339],[166.66198810844926,-77.84473275171825],[166.66224192353127,-77.84468713600744],[166.6624957367375,-77.84464152006495],[166.66274954806798,-77.84459590389079],[166.66300335752268,-77.84455028748498],[166.66328792006178,-77.84451359527773],[166.6635724809093,-77.84447690277939],[166.66385704006524,-77.84444020998995],[166.66414159752958,-77.84440351690941],[166.66444990207413,-77.84437665135574],[166.6647582052768,-77.84434978546042],[166.66506650713757,-77.84432291922347],[166.6653748076564,-77.84429605264486],[166.6656992650804,-77.84427967499289],[166.66602372164348,-77.84426329696257],[166.6663481773457,-77.84424691855389],[166.66667263218696,-77.84423053976687],[166.66700525632902,-77.84422505310792],[166.66733788017538,-77.84421956605135],[166.6676705037261,-77.84421407859716],[166.6680031269811,-77.84420859074537],[166.6683357309911,-77.84421413010699],[166.6686683352996,-77.84421966907105],[166.66900093990657,-77.84422520763755],[166.66933354481193,-77.84423074580647],[166.6696579424,-77.84424717483539],[166.66998234085145,-77.8442636034861],[166.67030674016632,-77.8442800317586],[166.67063114034457,-77.8442964596529],[166.6709212070236,-77.84432178989734],[166.6712465477857,-77.84426470662662],[166.67157188553907,-77.84420762297528],[166.67189722028374,-77.84415053894332],[166.67222255201975,-77.84409345453075],[166.6725478807471,-77.84403636973757],[166.67287320646582,-77.84397928456379],[166.67319852917598,-77.8439221990094],[166.6735238488775,-77.84386511307441],[166.67384916557052,-77.84380802675884],[166.67417447925496,-77.84375094006269],[166.6744997899309,-77.84369385298596],[166.67482509759836,-77.84363676552866],[166.67515040225734,-77.84357967769078],[166.67547570390786,-77.84352258947234],[166.67580100254997,-77.84346550087336],[166.67612629818368,-77.84340841189382],[166.67645159080902,-77.84335132253374],[166.676776880426,-77.84329423279311],[166.6771021670346,-77.84323714267194],[166.67742745063495,-77.84318005217025],[166.677752731227,-77.84312296128803],[166.67807800881076,-77.8430658700253],[166.67814557272487,-77.84305425657615],[166.67847354619423,-77.84299905164578],[166.6788015167306,-77.84294384632858],[166.67912948433406,-77.84288864062457],[166.67945744900464,-77.84283343453372],[166.6797854107423,-77.84277822805606],[166.68011336954712,-77.84272302119159],[166.68044132541905,-77.84266781394031],[166.6807692783582,-77.84261260630224],[166.68109722836454,-77.84255739827738],[166.68142517543808,-77.84250218986573],[166.68175311957884,-77.8424469810673],[166.68208106078686,-77.84239177188209],[166.68240899906218,-77.8423365623101],[166.68273693440474,-77.84228135235135],[166.68261017655445,-77.84219917352395],[166.68248342039146,-77.8421169946383],[166.6823566659157,-77.8420348156944],[166.68222991312714,-77.84195263669227],[166.68210316202578,-77.84187045763191],[166.68197641261156,-77.8417882785133],[166.68184966488445,-77.84170609933646],[166.68172291884446,-77.84162392010138],[166.6815961744915,-77.84154174080807],[166.68146943182552,-77.84145956145653],[166.68134269084655,-77.84137738204676],[166.68121595155455,-77.84129520257876],[166.6810892139494,-77.84121302305252],[166.6809624780312,-77.84113084346806],[166.68083574379983,-77.84104866382538],[166.6807090112553,-77.84096648412446],[166.68058228039752,-77.84088430436532],[166.6804555512265,-77.84080212454796],[166.6803581877122,-77.84071665608356],[166.68026082554564,-77.84063118758453],[166.68016346472677,-77.84054571905092],[166.68006610525555,-77.84046025048269],[166.68003344001204,-77.84037262455105],[166.6800007752321,-77.84028499861502],[166.6799681109157,-77.8401973726746],[166.6799354470628,-77.84010974672978],[166.67996827993025,-77.84002212359262],[166.68000111233175,-77.83993450045101],[166.68003394426736,-77.83984687730498],[166.68006677573706,-77.83975925415452],[166.68016429181702,-77.83967379382236],[166.68026180654735,-77.83958833345548],[166.68035931992813,-77.8395028730539],[166.68045683195936,-77.83941741261759],[166.68061662224375,-77.83933622160767],[166.68077641042723,-77.83925503050544],[166.68093619650983,-77.83917383931096],[166.68109598049156,-77.8390926480242],[166.68131410174587,-77.8390177274541],[166.68153222035386,-77.83894280671254],[166.6817503363156,-77.83886788579953],[166.68196844963106,-77.83879296471507],[166.68223952200665,-77.83872616101],[166.68251059144993,-77.83865935704041],[166.68278165796085,-77.83859255280633],[166.68305272153947,-77.83852574830775],[166.6833700614698,-77.8384687077323],[166.68368739846898,-77.83841166679457],[166.6840047325371,-77.83835462549452],[166.68432206367416,-77.83829758383217],[166.68465406926683,-77.8382468227109],[166.68498607213058,-77.83819606119312],[166.68531807226546,-77.83814529927882],[166.6856500696714,-77.83809453696803],[166.68598206434848,-77.83804377426075],[166.68631405629668,-77.83799301115697],[166.68664604551603,-77.83794224765671],[166.68697803200652,-77.83789148375998],[166.68731001576822,-77.83784071946675],[166.68764199680106,-77.83778995477707],[166.68797397510514,-77.83773918969092],[166.6883059506804,-77.83768842420832],[166.68863792352687,-77.83763765832926],[166.68896989364458,-77.83758689205374],[166.68930186103353,-77.83753612538177],[166.68963382569373,-77.83748535831337],[166.68996578762523,-77.83743459084855],[166.69029774682798,-77.83738382298728],[166.69062970330208,-77.83733305472958],[166.69096165704744,-77.83728228607546],[166.69129360806414,-77.83723151702495],[166.6916255563522,-77.837180747578],[166.69198080651466,-77.83713491737008],[166.69233605404102,-77.8370890867082],[166.6926912989313,-77.83704325559238],[166.69304654118548,-77.83699742402261],[166.693431408629,-77.83696385942841],[166.693816273981,-77.8369302943015],[166.6942011372415,-77.83689672864188],[166.69458599841042,-77.83686316244955],[166.6949910233685,-77.83684268836028],[166.69539604698397,-77.8368222136811],[166.6958010692568,-77.83680173841199],[166.69620609018688,-77.83678126255298],[166.69662131833658,-77.8367743821203],[166.69703654602367,-77.83676750106763],[166.6974517732482,-77.83676061939495],[166.69786700001004,-77.8367537371023],[166.69828222677177,-77.83676061939502],[166.69869745399617,-77.83676750106777],[166.6991126816832,-77.83677438212051],[166.6995279098328,-77.83678126255326],[166.69993293076266,-77.83680173841235],[166.70033795303522,-77.83682221368151],[166.70074297665042,-77.83684268836076],[166.70114800160826,-77.83686316245009],[166.70153286277676,-77.83689672864247],[166.70191772603684,-77.83693029430214],[166.70230259138845,-77.8369638594291],[166.70268745883158,-77.83699742402337],[166.70304270108522,-77.83704325559317],[166.70339794597496,-77.83708908670903],[166.7037531935008,-77.83713491737093],[166.7041084436627,-77.83718074757888],[166.70444039195036,-77.83723151702588],[166.70477234296666,-77.83728228607644],[166.70510429671168,-77.8373330547306],[166.70543625318535,-77.83738382298833],[166.70576821238777,-77.83743459084964],[166.7061001743189,-77.83748535831451],[166.70643213897876,-77.83753612538294],[166.7067641063674,-77.83758689205493],[166.70709607648476,-77.83763765833048],[166.7074280493309,-77.83768842420957],[166.70776002490587,-77.8377391896922],[166.7080920032096,-77.83778995477837],[166.70842398424213,-77.83784071946808],[166.70875596800354,-77.8378914837613],[166.70908795449375,-77.83794224765805],[166.70941994371285,-77.83799301115832],[166.7097519356608,-77.8380437742621],[166.71008393033762,-77.8380945369694],[166.71041592774333,-77.83814529928019],[166.71074792787795,-77.83819606119448],[166.71107993074148,-77.83824682271226],[166.71141193633395,-77.83829758383352],[166.71172926747062,-77.83835462549585],[166.7120466015384,-77.83841166679586],[166.71236393853724,-77.83846870773357],[166.71268127846722,-77.83852574830897],[166.71295234204544,-77.83859255280751],[166.71322340855596,-77.83865935704154],[166.71349447799886,-77.83872616101107],[166.71376555037412,-77.83879296471608],[166.71398366368916,-77.83886788580048],[166.71420177965052,-77.83894280671342],[166.71441989825811,-77.8390177274549],[166.71463801951205,-77.83909264802493],[166.71479780349338,-77.8391738393116],[166.71495758957562,-77.83925503050601],[166.71511737775873,-77.83933622160814],[166.71527716804283,-77.83941741261799],[166.71537468007372,-77.83950287305419],[166.71547219345416,-77.83958833345568],[166.7155697081842,-77.83967379382244],[166.7156672242639,-77.8397592541545],[166.71570005573332,-77.83984687730488],[166.71573288766868,-77.83993450045081],[166.71576572006995,-77.8400221235923],[166.71579855293717,-77.84010974672938],[166.7157658890841,-77.84019737267408],[166.71573322476752,-77.84028499861442],[166.71570055998745,-77.84037262455035],[166.71566789474383,-77.84046025048188],[166.7155705352725,-77.84054571905003],[166.7154731744535,-77.84063118758355],[166.71537581228685,-77.84071665608248],[166.71527844877252,-77.8408021245468],[166.7151517084751,-77.84088431157913],[166.71502496649066,-77.84096649855321],[166.71489822281916,-77.84104868546908],[166.71477147746057,-77.8411308723267],[166.71464473041488,-77.84121305912609],[166.71451798168198,-77.84129524586724],[166.7143912312619,-77.84137743255016],[166.71426447915462,-77.84145961917483],[166.7141377253601,-77.84154180574126],[166.71401096987825,-77.84162399224947],[166.7138842127091,-77.84170617869941],[166.71375745385262,-77.84178836509112],[166.7136306933087,-77.84187055142459],[166.71350393107738,-77.8419527376998],[166.7133771671586,-77.84203492391677],[166.71325040155236,-77.84211711007549],[166.71312363425858,-77.84219929617596],[166.71299686527726,-77.84228148221818],[166.71287009460832,-77.84236366820215],[166.71274332225178,-77.84244585412787],[166.7126165482076,-77.84252803999534],[166.71248977247572,-77.84261022580455],[166.71233022269058,-77.84269136537468],[166.71217067080843,-77.84277250485285],[166.71201111682925,-77.84285364423903],[166.71185156075296,-77.84293478353324],[166.71163372458176,-77.84300966735822],[166.71141588576813,-77.84308455101223],[166.71119804431203,-77.84315943449529],[166.71098020021344,-77.84323431780737],[166.71070943629493,-77.84330110233806],[166.71043866944714,-77.84336788660492],[166.71016789967,-77.84343467060796],[166.70989712696354,-77.84350145434718],[166.7095800982177,-77.8435584953098],[166.7092630665424,-77.84361553591094],[166.70894603193761,-77.84367257615064],[166.7086289944033,-77.84372961602887],[166.70827350415843,-77.8437755089499],[166.7079180112706,-77.84382140141662],[166.70756251573988,-77.843867293429],[166.7072070175662,-77.84391318498703],[166.70682181744863,-77.8439467998172],[166.70643661523337,-77.84398041411403],[166.7060514109205,-77.8440140278775],[166.70566620450998,-77.84404764110764],[166.70526077883042,-77.84406815008705],[166.70485535180376,-77.84408865847571],[166.70444992343016,-77.84410916627363],[166.70404449370957,-77.84412967348078],[166.7036288256733,-77.84413657155464],[166.7032131571725,-77.84414346900756],[166.7027974882073,-77.84415036583954],[166.70238181877767,-77.84415726205057],[166.70197138070876,-77.84415726840743],[166.70156094263945,-77.84415727415889],[166.70115050456974,-77.84415727930492],[166.70074006649975,-77.84415728384555],[166.70032962842947,-77.84415728778076],[166.69991919035894,-77.84415729111056],[166.69950875228824,-77.84415729383495],[166.69909831421734,-77.84415729595393],[166.69868787614635,-77.84415729746749],[166.69827743807528,-77.84415729837565],[166.69786700000415,-77.84415729867838],[166.69745656193302,-77.84415729837572],[166.69704612386192,-77.84415729746763],[166.69663568579094,-77.84415729595413],[166.69622524772004,-77.84415729383522],[166.69581480964933,-77.8441572911109],[166.69540437157877,-77.84415728778117],[166.69499393350853,-77.84415728384603],[166.69458349543854,-77.84415727930548],[166.69417305736886,-77.8441572741595],[166.69376261929955,-77.84415726840813],[166.69335218123064,-77.84415726205133],[166.69293651180118,-77.84415036584038],[166.69252084283616,-77.84414346900847],[166.69210517433558,-77.84413657155562],[166.6916895062995,-77.84412967348183],[166.691284076579,-77.84410916627476],[166.69087864820546,-77.84408865847693],[166.69047322117893,-77.84406815008835],[166.69006779549943,-77.84404764110901],[166.68968258908885,-77.84401402787897],[166.68929738477595,-77.84398041411556],[166.6889121825607,-77.84394679981881],[166.68852698244308,-77.84391318498872],[166.68817579181032,-77.84386784949962],[166.68782460375687,-77.84382251356712],[166.68747341828268,-77.84377717719121],[166.687141382812,-77.84383307991071],[166.68680934433428,-77.84388898223374],[166.68647730284957,-77.84394488416032],[166.68614525835778,-77.84400078569044],[166.68581321085895,-77.8440566868241],[166.68548116035302,-77.84411258756128],[166.68514910683996,-77.84416848790198],[166.6848170503198,-77.8442243878462],[166.68448499079247,-77.84428028739393],[166.68415292825796,-77.84433618654516],[166.68382086271626,-77.8443920852999],[166.68348879416737,-77.84444798365813],[166.68316545336947,-77.84450473928175],[166.68284210959848,-77.84456149452942],[166.6825187628544,-77.84461824940111],[166.6821954131371,-77.84467500389684],[166.68187206044664,-77.8447317580166],[166.68154870478293,-77.84478851176037],[166.68122534614605,-77.84484526512816],[166.6809019845359,-77.84490201811995],[166.6805786199525,-77.84495877073576],[166.6802552523958,-77.84501552297556],[166.67993188186577,-77.84507227483935],[166.6796085083624,-77.84512902632714],[166.67928513188573,-77.8451857774389],[166.67896175243564,-77.84524252817465],[166.67863837001215,-77.84529927853437],[166.67831498461524,-77.84535602851805],[166.67799159624488,-77.8454127781257],[166.67766820490107,-77.84546952735731],[166.67734481058378,-77.84552627621287],[166.67702141329295,-77.84558302469236],[166.67669801302858,-77.8456397727958],[166.67637460979068,-77.84569652052319],[166.67640167355015,-77.84572028557822],[166.67642777953282,-77.84579034635067],[166.67645388581184,-77.8458604071203],[166.6764799923872,-77.84593046788714],[166.6765060992589,-77.84600052865116],[166.6764798440292,-77.8460705869583],[166.67645358850146,-77.84614064526261],[166.6764273326757,-77.84621070356408],[166.67640107655183,-77.84628076186273],[166.67632310307454,-77.84634909260724],[166.67624512873394,-77.84641742332957],[166.67616715352995,-77.84648575402971],[166.67608917746261,-77.84655408470768]]],"type":"Polygon"},"properties":{"name":"fence","role":"fence"},"type":"Feature"}],"type":"FeatureCollection"}